[{"OBJECT_NAME":"LEMUR-2-AMANDA-SVANTE","OBJECT_ID":"2021-034B","EPOCH":"2026-03-09T18:37:58.823328","MEAN_MOTION":15.28469003,"ECCENTRICITY":0.00027027,"INCLINATION":97.5829,"RA_OF_ASC_NODE":144.8625,"ARG_OF_PERICENTER":205.4721,"MEAN_ANOMALY":154.6385,"EPHEMERIS_TYPE":0,"CLASSIFICATION_TYPE":"U","NORAD_CAT_ID":48269,"ELEMENT_SET_NO":999,"REV_AT_EPOCH":26584,"BSTAR":0.0011134246,"MEAN_MOTION_DOT":0.00030872,"MEAN_MOTION_DDOT":0},{"OBJECT_NAME":"STARLINK-32521","OBJECT_ID":"2024-222D","EPOCH":"2026-03-09T12:26:56.983776","MEAN_MOTION":15.2758568,"ECCENTRICITY":0.00016806,"INCLINATION":43.0001,"RA_OF_ASC_NODE":133.5044,"ARG_OF_PERICENTER":271.2024,"MEAN_ANOMALY":88.8635,"EPHEMERIS_TYPE":0,"CLASSIFICATION_TYPE":"U","NORAD_CAT_ID":62117,"ELEMENT_SET_NO":999,"REV_AT_EPOCH":7276,"BSTAR":0.00084428787,"MEAN_MOTION_DOT":0.00023048,"MEAN_MOTION_DDOT":0}]
